[{"OBJECT_NAME":"STARLINK-5684","OBJECT_ID":"2023-015E","EPOCH":"2026-03-09T02:39:23.596128","MEAN_MOTION":15.03263735,"ECCENTRICITY":0.00017491,"INCLINATION":43.0044,"RA_OF_ASC_NODE":329.4179,"ARG_OF_PERICENTER":264.1841,"MEAN_ANOMALY":95.8802,"EPHEMERIS_TYPE":0,"CLASSIFICATION_TYPE":"U","NORAD_CAT_ID":55453,"ELEMENT_SET_NO":999,"REV_AT_EPOCH":17066,"BSTAR":0.0059788815,"MEAN_MOTION_DOT":0.00083119,"MEAN_MOTION_DDOT":0},{"OBJECT_NAME":"COSMOS 397 DEB","OBJECT_ID":"1971-015BB","EPOCH":"2026-03-09T15:38:06.236448","MEAN_MOTION":13.4341347,"ECCENTRICITY":0.07360995,"INCLINATION":65.5542,"RA_OF_ASC_NODE":180.304,"ARG_OF_PERICENTER":341.7952,"MEAN_ANOMALY":15.795,"EPHEMERIS_TYPE":0,"CLASSIFICATION_TYPE":"U","NORAD_CAT_ID":5272,"ELEMENT_SET_NO":999,"REV_AT_EPOCH":63264,"BSTAR":0.00050139784,"MEAN_MOTION_DOT":1.444e-5,"MEAN_MOTION_DDOT":0}]
